{
    "links": {
        "self": "http://www.neowsapp.com/rest/v1/neo/3843476?api_key=iIulBulltgU6a56xZRHN4H3l9WmuAYTsLGpBGhQ2"
    },
    "id": "3843476",
    "neo_reference_id": "3843476",
    "name": "(2019 PJ)",
    "designation": "2019 PJ",
    "nasa_jpl_url": "http://ssd.jpl.nasa.gov/sbdb.cgi?sstr=3843476",
    "absolute_magnitude_h": 23.8,
    "estimated_diameter": {
        "kilometers": {
            "estimated_diameter_min": 0.046190746,
            "estimated_diameter_max": 0.1032856481
        },
        "meters": {
            "estimated_diameter_min": 46.1907460282,
            "estimated_diameter_max": 103.2856480504
        },
        "miles": {
            "estimated_diameter_min": 0.0287015901,
            "estimated_diameter_max": 0.0641787064
        },
        "feet": {
            "estimated_diameter_min": 151.544447199,
            "estimated_diameter_max": 338.8636855496
        }
    },
    "is_potentially_hazardous_asteroid": false,
    "close_approach_data": [
        {
            "close_approach_date": "1933-02-28",
            "close_approach_date_full": "1933-Feb-28 23:34",
            "epoch_date_close_approach": -1162513560000,
            "relative_velocity": {
                "kilometers_per_second": "13.3736233368",
                "kilometers_per_hour": "48145.0440124408",
                "miles_per_hour": "29915.4580420635"
            },
            "miss_distance": {
                "astronomical": "0.0691559523",
                "lunar": "26.9016654447",
                "kilometers": "10345583.161901601",
                "miles": "6428447.2857440538"
            },
            "orbiting_body": "Mars"
        },
        {
            "close_approach_date": "2017-07-21",
            "close_approach_date_full": "2017-Jul-21 12:57",
            "epoch_date_close_approach": 1500641820000,
            "relative_velocity": {
                "kilometers_per_second": "26.8860578457",
                "kilometers_per_hour": "96789.8082445675",
                "miles_per_hour": "60141.4227950759"
            },
            "miss_distance": {
                "astronomical": "0.4494126566",
                "lunar": "174.8215234174",
                "kilometers": "67231176.178401442",
                "miles": "41775515.7208542196"
            },
            "orbiting_body": "Earth"
        },
        {
            "close_approach_date": "2019-08-16",
            "close_approach_date_full": "2019-Aug-16 00:19",
            "epoch_date_close_approach": 1565914740000,
            "relative_velocity": {
                "kilometers_per_second": "14.1763657639",
                "kilometers_per_hour": "51034.9167499684",
                "miles_per_hour": "31711.1125772234"
            },
            "miss_distance": {
                "astronomical": "0.0224662841",
                "lunar": "8.7393845149",
                "kilometers": "3360908.248174867",
                "miles": "2088371.5463404846"
            },
            "orbiting_body": "Earth"
        },
        {
            "close_approach_date": "2026-01-26",
            "close_approach_date_full": "2026-Jan-26 00:38",
            "epoch_date_close_approach": 1769387880000,
            "relative_velocity": {
                "kilometers_per_second": "24.5072074116",
                "kilometers_per_hour": "88225.946681729",
                "miles_per_hour": "54820.1722589888"
            },
            "miss_distance": {
                "astronomical": "0.3584546695",
                "lunar": "139.4388664355",
                "kilometers": "53624055.048753965",
                "miles": "33320442.717836117"
            },
            "orbiting_body": "Earth"
        }
    ],
    "orbital_data": {
        "orbit_id": "4",
        "orbit_determination_date": "2019-12-04 07:18:40",
        "first_observation_date": "2019-08-05",
        "last_observation_date": "2019-08-13",
        "data_arc_in_days": 8,
        "observations_used": 35,
        "orbit_uncertainty": "8",
        "minimum_orbit_intersection": ".00676262",
        "jupiter_tisserand_invariant": "4.154",
        "epoch_osculation": "2458701.5",
        "eccentricity": ".5258287206821378",
        "semi_major_axis": "1.624394123280295",
        "inclination": ".8924956127767262",
        "ascending_node_longitude": "78.43003650608158",
        "orbital_period": "756.1980294595166",
        "perihelion_distance": ".7702410395522348",
        "perihelion_argument": "317.7592585652047",
        "aphelion_distance": "2.478547207008356",
        "perihelion_time": "2458760.691231407751",
        "mean_anomaly": "331.8210806208784",
        "mean_motion": ".4760657737462046",
        "equinox": "J2000",
        "orbit_class": {
            "orbit_class_type": "APO",
            "orbit_class_description": "Near-Earth asteroid orbits which cross the Earth’s orbit similar to that of 1862 Apollo",
            "orbit_class_range": "a (semi-major axis) > 1.0 AU; q (perihelion) < 1.017 AU"
        }
    },
    "is_sentry_object": false
}